STARLINK-5501           
1 55648U 23021W   26068.71060223 -.00000619  00000+0 -44076-4 0  9991
2 55648  70.0012 184.4395 0003089 264.3482  95.7325 14.98328021168793
HAWK-9A                 
1 59446U 24066E   26068.43100697  .00002638  00000+0  23459-3 0  9992
2 59446  45.6088  72.7153 0003627 244.6286 115.4219 14.98777479104861
